NUSAT-50 (NANCY ROMAN)  
1 60493U 24149AB  26068.80227738  .00012094  00000+0  42252-3 0  9994
2 60493  97.3817 150.7693 0002523 238.0469 122.0527 15.29713355 86930
STARLINK-32383          
1 61891U 24204T   26068.54762585 -.00000397  00000+0 -12773-5 0  9996
2 61891  53.1607 127.8864 0001168 113.3459 246.7665 15.30189917 75076
