[{"OBJECT_NAME":"NUSAT-50 (NANCY ROMAN)","OBJECT_ID":"2024-149AB","EPOCH":"2026-03-09T19:15:16.765632","MEAN_MOTION":15.29713355,"ECCENTRICITY":0.00025229,"INCLINATION":97.3817,"RA_OF_ASC_NODE":150.7693,"ARG_OF_PERICENTER":238.0469,"MEAN_ANOMALY":122.0527,"EPHEMERIS_TYPE":0,"CLASSIFICATION_TYPE":"U","NORAD_CAT_ID":60493,"ELEMENT_SET_NO":999,"REV_AT_EPOCH":8693,"BSTAR":0.0004225155,"MEAN_MOTION_DOT":0.00012094,"MEAN_MOTION_DDOT":0},{"OBJECT_NAME":"STARLINK-32383","OBJECT_ID":"2024-204T","EPOCH":"2026-03-09T13:08:34.873440","MEAN_MOTION":15.30189917,"ECCENTRICITY":0.0001168,"INCLINATION":53.1607,"RA_OF_ASC_NODE":127.8864,"ARG_OF_PERICENTER":113.3459,"MEAN_ANOMALY":246.7665,"EPHEMERIS_TYPE":0,"CLASSIFICATION_TYPE":"U","NORAD_CAT_ID":61891,"ELEMENT_SET_NO":999,"REV_AT_EPOCH":7507,"BSTAR":-1.2773e-6,"MEAN_MOTION_DOT":-3.97e-6,"MEAN_MOTION_DDOT":0}]
